HONGHU-3_L_00005022-49
1 49311U 24189FL  26070.40781250  .00000000  00000+0  00000-0 0  9993
2 49311  60.0000 315.0000 0000000   0.0000  10.8000 15.08756051    13
HONGHU-3_L_00005022-50
1 49312U 24392TD  26070.40781250  .00000000  00000+0  00000-0 0  9990
2 49312  60.0000 315.0000 0000000   0.0000  18.0000 15.08756051    14
HONGHU-3_L_00005023-01
1 49313U 23367M   26070.40781250  .00000000  00000+0  00000-0 0  9992
2 49313  60.0000 330.0000 0000000   0.0000  26.4000 15.08756051    15
HONGHU-3_L_00005023-02
1 49314U 23273LV  26070.40781250  .00000000  00000+0  00000-0 0  9999
2 49314  60.0000 330.0000 0000000   0.0000  33.6000 15.08756051    16
HONGHU-3_L_00005023-03
1 49315U 25465IM  26070.40781250  .00000000  00000+0  00000-0 0  9995
2 49315  60.0000 330.0000 0000000   0.0000  40.8000 15.08756051    17
HONGHU-3_L_00005023-04
1 49316U 23575LA  26070.40781250  .00000000  00000+0  00000-0 0  9996
2 49316  60.0000 330.0000 0000000   0.0000  48.0000 15.08756051    18
HONGHU-3_L_00005023-05
1 49317U 25837IQ  26070.40781250  .00000000  00000+0  00000-0 0  9990
2 49317  60.0000 330.0000 0000000   0.0000  55.2000 15.08756051    19
HONGHU-3_L_00005023-06
1 49318U 23117QX  26070.40781250  .00000000  00000+0  00000-0 0  9990
2 49318  60.0000 330.0000 0000000   0.0000  62.4000 15.08756051    10
HONGHU-3_L_00005023-07
1 49319U 26248FJ  26070.40781250  .00000000  00000+0  00000-0 0  9999
2 49319  60.0000 330.0000 0000000   0.0000  69.6000 15.08756051    10
HONGHU-3_L_00005023-08
1 49320U 24725K   26070.40781250  .00000000  00000+0  00000-0 0  9999
2 49320  60.0000 330.0000 0000000   0.0000  76.8000 15.08756051    12
HONGHU-3_L_00005023-09
1 49321U 23093EY  26070.40781250  .00000000  00000+0  00000-0 0  9997
2 49321  60.0000 330.0000 0000000   0.0000  84.0000 15.08756051    14
HONGHU-3_L_00005023-10
1 49322U 24229SF  26070.40781250  .00000000  00000+0  00000-0 0  9990
2 49322  60.0000 330.0000 0000000   0.0000  91.2000 15.08756051    15
HONGHU-3_L_00005023-11
1 49323U 26283RA  26070.40781250  .00000000  00000+0  00000-0 0  9993
2 49323  60.0000 330.0000 0000000   0.0000  98.4000 15.08756051    15
HONGHU-3_L_00005023-12
1 49324U 26553VA  26070.40781250  .00000000  00000+0  00000-0 0  9994
2 49324  60.0000 330.0000 0000000   0.0000 105.6000 15.08756051    17
HONGHU-3_L_00005023-13
1 49325U 22048UM  26070.40781250  .00000000  00000+0  00000-0 0  9990
2 49325  60.0000 330.0000 0000000   0.0000 112.8000 15.08756051    18
HONGHU-3_L_00005023-14
1 49326U 25668RJ  26070.40781250  .00000000  00000+0  00000-0 0  9992
2 49326  60.0000 330.0000 0000000   0.0000 120.0000 15.08756051    10
HONGHU-3_L_00005023-15
1 49327U 24504TZ  26070.40781250  .00000000  00000+0  00000-0 0  9991
2 49327  60.0000 330.0000 0000000   0.0000 127.2000 15.08756051    10
HONGHU-3_L_00005023-16
1 49328U 24742TA  26070.40781250  .00000000  00000+0  00000-0 0  9996
2 49328  60.0000 330.0000 0000000   0.0000 134.4000 15.08756051    11
HONGHU-3_L_00005023-17
1 49329U 26630TL  26070.40781250  .00000000  00000+0  00000-0 0  9995
2 49329  60.0000 330.0000 0000000   0.0000 141.6000 15.08756051    12
HONGHU-3_L_00005023-18
1 49330U 25180MI  26070.40781250  .00000000  00000+0  00000-0 0  9996
2 49330  60.0000 330.0000 0000000   0.0000 148.8000 15.08756051    13
HONGHU-3_L_00005023-19
1 49331U 23672RG  26070.40781250  .00000000  00000+0  00000-0 0  9991
2 49331  60.0000 330.0000 0000000   0.0000 156.0000 15.08756051    15
HONGHU-3_L_00005023-20
1 49332U 24924PL  26070.40781250  .00000000  00000+0  00000-0 0  9993
2 49332  60.0000 330.0000 0000000   0.0000 163.2000 15.08756051    16
HONGHU-3_L_00005023-21
1 49333U 25239XF  26070.40781250  .00000000  00000+0  00000-0 0  9994
2 49333  60.0000 330.0000 0000000   0.0000 170.4000 15.08756051    17
HONGHU-3_L_00005023-22
1 49334U 25241VW  26070.40781250  .00000000  00000+0  00000-0 0  9998
2 49334  60.0000 330.0000 0000000   0.0000 177.6000 15.08756051    17
HONGHU-3_L_00005023-23
1 49335U 24925WO  26070.40781250  .00000000  00000+0  00000-0 0  9997
2 49335  60.0000 330.0000 0000000   0.0000 184.8000 15.08756051    18
HONGHU-3_L_00005023-24
1 49336U 25349TF  26070.40781250  .00000000  00000+0  00000-0 0  9999
2 49336  60.0000 330.0000 0000000   0.0000 192.0000 15.08756051    10
HONGHU-3_L_00005023-25
1 49337U 23441IL  26070.40781250  .00000000  00000+0  00000-0 0  9991
2 49337  60.0000 330.0000 0000000   0.0000 199.2000 15.08756051    10
HONGHU-3_L_00005023-26
1 49338U 25473VC  26070.40781250  .00000000  00000+0  00000-0 0  9999
2 49338  60.0000 330.0000 0000000   0.0000 206.4000 15.08756051    12
HONGHU-3_L_00005023-27
1 49339U 24575TR  26070.40781250  .00000000  00000+0  00000-0 0  9992
2 49339  60.0000 330.0000 0000000   0.0000 213.6000 15.08756051    13
HONGHU-3_L_00005023-28
1 49340U 26084KH  26070.40781250  .00000000  00000+0  00000-0 0  9991
2 49340  60.0000 330.0000 0000000   0.0000 220.8000 15.08756051    15
HONGHU-3_L_00005023-29
1 49341U 25597EJ  26070.40781250  .00000000  00000+0  00000-0 0  9990
2 49341  60.0000 330.0000 0000000   0.0000 228.0000 15.08756051    16
HONGHU-3_L_00005023-30
1 49342U 22290NY  26070.40781250  .00000000  00000+0  00000-0 0  9998
2 49342  60.0000 330.0000 0000000   0.0000 235.2000 15.08756051    17
HONGHU-3_L_00005023-31
1 49343U 24406OA  26070.40781250  .00000000  00000+0  00000-0 0  9990
2 49343  60.0000 330.0000 0000000   0.0000 242.4000 15.08756051    18
HONGHU-3_L_00005023-32
1 49344U 25503EI  26070.40781250  .00000000  00000+0  00000-0 0  9990
2 49344  60.0000 330.0000 0000000   0.0000 249.6000 15.08756051    18
HONGHU-3_L_00005023-33
1 49345U 25670WT  26070.40781250  .00000000  00000+0  00000-0 0  9996
2 49345  60.0000 330.0000 0000000   0.0000 256.8000 15.08756051    19
HONGHU-3_L_00005023-34
1 49346U 24083OF  26070.40781250  .00000000  00000+0  00000-0 0  9994
2 49346  60.0000 330.0000 0000000   0.0000 264.0000 15.08756051    11
HONGHU-3_L_00005023-35
1 49347U 22923NP  26070.40781250  .00000000  00000+0  00000-0 0  9996
2 49347  60.0000 330.0000 0000000   0.0000 271.2000 15.08756051    12
HONGHU-3_L_00005023-36
1 49348U 24062SL  26070.40781250  .00000000  00000+0  00000-0 0  9993
2 49348  60.0000 330.0000 0000000   0.0000 278.4000 15.08756051    12
HONGHU-3_L_00005023-37
1 49349U 24797TN  26070.40781250  .00000000  00000+0  00000-0 0  9999
2 49349  60.0000 330.0000 0000000   0.0000 285.6000 15.08756051    13
HONGHU-3_L_00005023-38
1 49350U 22656OB  26070.40781250  .00000000  00000+0  00000-0 0  9993
2 49350  60.0000 330.0000 0000000   0.0000 292.8000 15.08756051    15
HONGHU-3_L_00005023-39
1 49351U 25292HO  26070.40781250  .00000000  00000+0  00000-0 0  9993
2 49351  60.0000 330.0000 0000000   0.0000 300.0000 15.08756051    18
HONGHU-3_L_00005023-40
1 49352U 25949IL  26070.40781250  .00000000  00000+0  00000-0 0  9993
2 49352  60.0000 330.0000 0000000   0.0000 307.2000 15.08756051    18
HONGHU-3_L_00005023-41
1 49353U 25775ZV  26070.40781250  .00000000  00000+0  00000-0 0  9991
2 49353  60.0000 330.0000 0000000   0.0000 314.4000 15.08756051    19
HONGHU-3_L_00005023-42
1 49354U 25088D   26070.40781250  .00000000  00000+0  00000-0 0  9999
2 49354  60.0000 330.0000 0000000   0.0000 321.6000 15.08756051    10
HONGHU-3_L_00005023-43
1 49355U 23813NW  26070.40781250  .00000000  00000+0  00000-0 0  9994
2 49355  60.0000 330.0000 0000000   0.0000 328.8000 15.08756051    10
HONGHU-3_L_00005023-44
1 49356U 26553AR  26070.40781250  .00000000  00000+0  00000-0 0  9999
2 49356  60.0000 330.0000 0000000   0.0000 336.0000 15.08756051    12
HONGHU-3_L_00005023-45
1 49357U 23810TA  26070.40781250  .00000000  00000+0  00000-0 0  9993
2 49357  60.0000 330.0000 0000000   0.0000 343.2000 15.08756051    13
HONGHU-3_L_00005023-46
1 49358U 23348TF  26070.40781250  .00000000  00000+0  00000-0 0  9990
2 49358  60.0000 330.0000 0000000   0.0000 350.4000 15.08756051    14
HONGHU-3_L_00005023-47
1 49359U 25555YX  26070.40781250  .00000000  00000+0  00000-0 0  9993
2 49359  60.0000 330.0000 0000000   0.0000 357.6000 15.08756051    14
HONGHU-3_L_00005023-48
1 49360U 26121WT  26070.40781250  .00000000  00000+0  00000-0 0  9995
2 49360  60.0000 330.0000 0000000   0.0000   4.8000 15.08756051    17
HONGHU-3_L_00005023-49
1 49361U 26908FZ  26070.40781250  .00000000  00000+0  00000-0 0  9999
2 49361  60.0000 330.0000 0000000   0.0000  12.0000 15.08756051    19
HONGHU-3_L_00005023-50
1 49362U 23333TX  26070.40781250  .00000000  00000+0  00000-0 0  9999
2 49362  60.0000 330.0000 0000000   0.0000  19.2000 15.08756051    19
HONGHU-3_L_00005024-01
1 49363U 22550AG  26070.40781250  .00000000  00000+0  00000-0 0  9990
2 49363  60.0000 345.0000 0000000   0.0000  27.6000 15.08756051    19
HONGHU-3_L_00005024-02
1 49364U 24923BJ  26070.40781250  .00000000  00000+0  00000-0 0  9997
2 49364  60.0000 345.0000 0000000   0.0000  34.8000 15.08756051    10
HONGHU-3_L_00005024-03
1 49365U 24585SA  26070.40781250  .00000000  00000+0  00000-0 0  9992
2 49365  60.0000 345.0000 0000000   0.0000  42.0000 15.08756051    12
HONGHU-3_L_00005024-04
1 49366U 22998RP  26070.40781250  .00000000  00000+0  00000-0 0  9999
2 49366  60.0000 345.0000 0000000   0.0000  49.2000 15.08756051    12
HONGHU-3_L_00005024-05
1 49367U 24539BE  26070.40781250  .00000000  00000+0  00000-0 0  9993
2 49367  60.0000 345.0000 0000000   0.0000  56.4000 15.08756051    13
HONGHU-3_L_00005024-06
1 49368U 22698VG  26070.40781250  .00000000  00000+0  00000-0 0  9998
2 49368  60.0000 345.0000 0000000   0.0000  63.6000 15.08756051    14
HONGHU-3_L_00005024-07
1 49369U 25621YY  26070.40781250  .00000000  00000+0  00000-0 0  9998
2 49369  60.0000 345.0000 0000000   0.0000  70.8000 15.08756051    15
HONGHU-3_L_00005024-08
1 49370U 23071DU  26070.40781250  .00000000  00000+0  00000-0 0  9997
2 49370  60.0000 345.0000 0000000   0.0000  78.0000 15.08756051    17
HONGHU-3_L_00005024-09
1 49371U 25812MV  26070.40781250  .00000000  00000+0  00000-0 0  9993
2 49371  60.0000 345.0000 0000000   0.0000  85.2000 15.08756051    18
